COSMOS 1933             
1 18958U 88020A   26039.12395600  .00004255  00000+0  20947-3 0  9995
2 18958  82.5122 280.1637 0003216 323.0407  37.0604 15.17730006 45741
SL-3 R/B                
1 19046U 88032B   26039.10283852  .00007338  00000+0  34571-3 0  9993
2 19046  97.5153  22.4781 0025528 341.4504  18.5797 15.19523502 47617
SL-16 R/B               
1 19120U 88039B   26038.68132341 -.00000101  00000+0 -25196-4 0  9998
2 19120  71.0150 132.0030 0020916  20.1871 340.0076 14.19611596954129
COSMOS 1953             
1 19210U 88050A   26039.22619865  .00011559  00000+0  42227-3 0  9993
2 19210  82.5093 187.8593 0010601 224.2787 135.7605 15.27924184 33289
SL-8 R/B                
1 19257U 88053B   26038.84042625  .00000351  00000+0  12218-3 0  9993
2 19257  74.0479 167.4803 0020365 352.3253 121.9904 14.38897831972304
COSMOS 1975             
1 19573U 88093A   26038.79340718  .00010301  00000+0  38073-3 0  9999
2 19573  82.5220 147.6746 0010269 276.0143  83.9925 15.27537453 14847
SL-14 R/B               
1 19574U 88093B   26039.09293023  .00000515  00000+0  56378-4 0  9995
2 19574  82.5280  69.8355 0021873 133.1878 280.2896 14.85623135996648
SL-16 R/B               
1 19650U 88102B   26039.02631758  .00000191  00000+0  12048-3 0  9990
2 19650  70.9971 213.9074 0012421  50.5752 309.6468 14.16146823922696
INTERCOSMOS 24          
1 20261U 89080A   26039.17601979  .00000642  00000+0  18556-3 0  9995
2 20261  82.6068 123.6141 1188093   1.3561 359.0302 12.59517626663086
SL-14 R/B               
1 20262U 89080C   26038.86922387  .00000481  00000+0  14595-3 0  9990
2 20262  82.5943 192.3295 1229453 252.9428  93.3630 12.50457528656420
DELTA 1 R/B             
1 20323U 89089B   26039.09873921  .00000451  00000+0  12052-3 0  9995
2 20323  97.0726 251.2397 0068199 215.2663 144.4013 14.50638058891443
ARIANE 40 R/B           
1 20443U 90005H   26039.14063387  .00000324  00000+0  11670-3 0  9995
2 20443  98.3149 100.6729 0008998 296.2774  63.7490 14.39850492888553
