CCSDS_OMM_VERS = 2.0
CREATION_DATE  = 
ORIGINATOR     = 

OBJECT_NAME    = COSMOS 1933
OBJECT_ID      = 1988-020A
CENTER_NAME    = EARTH
REF_FRAME      = TEME
TIME_SYSTEM    = UTC
MEAN_ELEMENT_THEORY = SGP/SGP4

EPOCH          = 2026-02-08T02:58:29.798400
MEAN_MOTION    = 15.17730006
ECCENTRICITY   = .0003216
INCLINATION    = 82.5122
RA_OF_ASC_NODE = 280.1637
ARG_OF_PERICENTER = 323.0407
MEAN_ANOMALY   = 37.0604

EPHEMERIS_TYPE = 0
CLASSIFICATION_TYPE = U
NORAD_CAT_ID   = 18958
ELEMENT_SET_NO = 999
REV_AT_EPOCH   = 4574
BSTAR          = .20947E-3
MEAN_MOTION_DOT = .4255E-4
MEAN_MOTION_DDOT = 0

CCSDS_OMM_VERS = 2.0
CREATION_DATE  = 
ORIGINATOR     = 

OBJECT_NAME    = SL-3 R/B
OBJECT_ID      = 1988-032B
CENTER_NAME    = EARTH
REF_FRAME      = TEME
TIME_SYSTEM    = UTC
MEAN_ELEMENT_THEORY = SGP/SGP4

EPOCH          = 2026-02-08T02:28:05.248128
MEAN_MOTION    = 15.19523502
ECCENTRICITY   = .0025528
INCLINATION    = 97.5153
RA_OF_ASC_NODE = 22.4781
ARG_OF_PERICENTER = 341.4504
MEAN_ANOMALY   = 18.5797

EPHEMERIS_TYPE = 0
CLASSIFICATION_TYPE = U
NORAD_CAT_ID   = 19046
ELEMENT_SET_NO = 999
REV_AT_EPOCH   = 4761
BSTAR          = .34571E-3
MEAN_MOTION_DOT = .7338E-4
MEAN_MOTION_DDOT = 0

CCSDS_OMM_VERS = 2.0
CREATION_DATE  = 
ORIGINATOR     = 

OBJECT_NAME    = SL-16 R/B
OBJECT_ID      = 1988-039B
CENTER_NAME    = EARTH
REF_FRAME      = TEME
TIME_SYSTEM    = UTC
MEAN_ELEMENT_THEORY = SGP/SGP4

EPOCH          = 2026-02-07T16:21:06.342624
MEAN_MOTION    = 14.19611596
ECCENTRICITY   = .00209162
INCLINATION    = 71.0150
RA_OF_ASC_NODE = 132.0030
ARG_OF_PERICENTER = 20.1871
MEAN_ANOMALY   = 340.0076

EPHEMERIS_TYPE = 0
CLASSIFICATION_TYPE = U
NORAD_CAT_ID   = 19120
ELEMENT_SET_NO = 999
REV_AT_EPOCH   = 95412
BSTAR          = -.2519571E-4
MEAN_MOTION_DOT = -.101E-5
MEAN_MOTION_DDOT = 0

CCSDS_OMM_VERS = 2.0
CREATION_DATE  = 
ORIGINATOR     = 

OBJECT_NAME    = COSMOS 1953
OBJECT_ID      = 1988-050A
CENTER_NAME    = EARTH
REF_FRAME      = TEME
TIME_SYSTEM    = UTC
MEAN_ELEMENT_THEORY = SGP/SGP4

EPOCH          = 2026-02-08T05:25:43.563360
MEAN_MOTION    = 15.27924184
ECCENTRICITY   = .0010601
INCLINATION    = 82.5093
RA_OF_ASC_NODE = 187.8593
ARG_OF_PERICENTER = 224.2787
MEAN_ANOMALY   = 135.7605

EPHEMERIS_TYPE = 0
CLASSIFICATION_TYPE = U
NORAD_CAT_ID   = 19210
ELEMENT_SET_NO = 999
REV_AT_EPOCH   = 3328
BSTAR          = .42227E-3
MEAN_MOTION_DOT = .11559E-3
MEAN_MOTION_DDOT = 0

CCSDS_OMM_VERS = 2.0
CREATION_DATE  = 
ORIGINATOR     = 

OBJECT_NAME    = SL-8 R/B
OBJECT_ID      = 1988-053B
CENTER_NAME    = EARTH
REF_FRAME      = TEME
TIME_SYSTEM    = UTC
MEAN_ELEMENT_THEORY = SGP/SGP4

EPOCH          = 2026-02-07T20:10:12.828000
MEAN_MOTION    = 14.38897831
ECCENTRICITY   = .00203652
INCLINATION    = 74.0479
RA_OF_ASC_NODE = 167.4803
ARG_OF_PERICENTER = 352.3253
MEAN_ANOMALY   = 121.9904

EPHEMERIS_TYPE = 0
CLASSIFICATION_TYPE = U
NORAD_CAT_ID   = 19257
ELEMENT_SET_NO = 999
REV_AT_EPOCH   = 97230
BSTAR          = .12218138E-3
MEAN_MOTION_DOT = .351E-5
MEAN_MOTION_DDOT = 0

CCSDS_OMM_VERS = 2.0
CREATION_DATE  = 
ORIGINATOR     = 

OBJECT_NAME    = COSMOS 1975
OBJECT_ID      = 1988-093A
CENTER_NAME    = EARTH
REF_FRAME      = TEME
TIME_SYSTEM    = UTC
MEAN_ELEMENT_THEORY = SGP/SGP4

EPOCH          = 2026-02-07T19:02:30.380352
MEAN_MOTION    = 15.27537453
ECCENTRICITY   = .00102699
INCLINATION    = 82.5220
RA_OF_ASC_NODE = 147.6746
ARG_OF_PERICENTER = 276.0143
MEAN_ANOMALY   = 83.9925

EPHEMERIS_TYPE = 0
CLASSIFICATION_TYPE = U
NORAD_CAT_ID   = 19573
ELEMENT_SET_NO = 999
REV_AT_EPOCH   = 1484
BSTAR          = .38072791E-3
MEAN_MOTION_DOT = .10301E-3
MEAN_MOTION_DDOT = 0

CCSDS_OMM_VERS = 2.0
CREATION_DATE  = 
ORIGINATOR     = 

OBJECT_NAME    = SL-14 R/B
OBJECT_ID      = 1988-093B
CENTER_NAME    = EARTH
REF_FRAME      = TEME
TIME_SYSTEM    = UTC
MEAN_ELEMENT_THEORY = SGP/SGP4

EPOCH          = 2026-02-08T02:13:49.171872
MEAN_MOTION    = 14.85623135
ECCENTRICITY   = .0021873
INCLINATION    = 82.5280
RA_OF_ASC_NODE = 69.8355
ARG_OF_PERICENTER = 133.1878
MEAN_ANOMALY   = 280.2896

EPHEMERIS_TYPE = 0
CLASSIFICATION_TYPE = U
NORAD_CAT_ID   = 19574
ELEMENT_SET_NO = 999
REV_AT_EPOCH   = 99664
BSTAR          = .56378E-4
MEAN_MOTION_DOT = .515E-5
MEAN_MOTION_DDOT = 0

CCSDS_OMM_VERS = 2.0
CREATION_DATE  = 
ORIGINATOR     = 

OBJECT_NAME    = SL-16 R/B
OBJECT_ID      = 1988-102B
CENTER_NAME    = EARTH
REF_FRAME      = TEME
TIME_SYSTEM    = UTC
MEAN_ELEMENT_THEORY = SGP/SGP4

EPOCH          = 2026-02-08T00:37:53.838912
MEAN_MOTION    = 14.16146823
ECCENTRICITY   = .0012421
INCLINATION    = 70.9971
RA_OF_ASC_NODE = 213.9074
ARG_OF_PERICENTER = 50.5752
MEAN_ANOMALY   = 309.6468

EPHEMERIS_TYPE = 0
CLASSIFICATION_TYPE = U
NORAD_CAT_ID   = 19650
ELEMENT_SET_NO = 999
REV_AT_EPOCH   = 92269
BSTAR          = .12048E-3
MEAN_MOTION_DOT = .191E-5
MEAN_MOTION_DDOT = 0

CCSDS_OMM_VERS = 2.0
CREATION_DATE  = 
ORIGINATOR     = 

OBJECT_NAME    = INTERCOSMOS 24
OBJECT_ID      = 1989-080A
CENTER_NAME    = EARTH
REF_FRAME      = TEME
TIME_SYSTEM    = UTC
MEAN_ELEMENT_THEORY = SGP/SGP4

EPOCH          = 2026-02-08T04:13:28.109856
MEAN_MOTION    = 12.59517626
ECCENTRICITY   = .1188093
INCLINATION    = 82.6068
RA_OF_ASC_NODE = 123.6141
ARG_OF_PERICENTER = 1.3561
MEAN_ANOMALY   = 359.0302

EPHEMERIS_TYPE = 0
CLASSIFICATION_TYPE = U
NORAD_CAT_ID   = 20261
ELEMENT_SET_NO = 999
REV_AT_EPOCH   = 66308
BSTAR          = .18556E-3
MEAN_MOTION_DOT = .642E-5
MEAN_MOTION_DDOT = 0

CCSDS_OMM_VERS = 2.0
CREATION_DATE  = 
ORIGINATOR     = 

OBJECT_NAME    = SL-14 R/B
OBJECT_ID      = 1989-080C
CENTER_NAME    = EARTH
REF_FRAME      = TEME
TIME_SYSTEM    = UTC
MEAN_ELEMENT_THEORY = SGP/SGP4

EPOCH          = 2026-02-07T20:51:40.942368
MEAN_MOTION    = 12.50457528
ECCENTRICITY   = .1229453
INCLINATION    = 82.5943
RA_OF_ASC_NODE = 192.3295
ARG_OF_PERICENTER = 252.9428
MEAN_ANOMALY   = 93.3630

EPHEMERIS_TYPE = 0
CLASSIFICATION_TYPE = U
NORAD_CAT_ID   = 20262
ELEMENT_SET_NO = 999
REV_AT_EPOCH   = 65642
BSTAR          = .14595E-3
MEAN_MOTION_DOT = .481E-5
MEAN_MOTION_DDOT = 0

CCSDS_OMM_VERS = 2.0
CREATION_DATE  = 
ORIGINATOR     = 

OBJECT_NAME    = DELTA 1 R/B
OBJECT_ID      = 1989-089B
CENTER_NAME    = EARTH
REF_FRAME      = TEME
TIME_SYSTEM    = UTC
MEAN_ELEMENT_THEORY = SGP/SGP4

EPOCH          = 2026-02-08T02:22:11.067744
MEAN_MOTION    = 14.50638058
ECCENTRICITY   = .0068199
INCLINATION    = 97.0726
RA_OF_ASC_NODE = 251.2397
ARG_OF_PERICENTER = 215.2663
MEAN_ANOMALY   = 144.4013

EPHEMERIS_TYPE = 0
CLASSIFICATION_TYPE = U
NORAD_CAT_ID   = 20323
ELEMENT_SET_NO = 999
REV_AT_EPOCH   = 89144
BSTAR          = .12052E-3
MEAN_MOTION_DOT = .451E-5
MEAN_MOTION_DDOT = 0

CCSDS_OMM_VERS = 2.0
CREATION_DATE  = 
ORIGINATOR     = 

OBJECT_NAME    = ARIANE 40 R/B
OBJECT_ID      = 1990-005H
CENTER_NAME    = EARTH
REF_FRAME      = TEME
TIME_SYSTEM    = UTC
MEAN_ELEMENT_THEORY = SGP/SGP4

EPOCH          = 2026-02-08T03:22:30.766368
MEAN_MOTION    = 14.39850492
ECCENTRICITY   = .0008998
INCLINATION    = 98.3149
RA_OF_ASC_NODE = 100.6729
ARG_OF_PERICENTER = 296.2774
MEAN_ANOMALY   = 63.7490

EPHEMERIS_TYPE = 0
CLASSIFICATION_TYPE = U
NORAD_CAT_ID   = 20443
ELEMENT_SET_NO = 999
REV_AT_EPOCH   = 88855
BSTAR          = .1167E-3
MEAN_MOTION_DOT = .324E-5
MEAN_MOTION_DDOT = 0

